WREN-1                  
1 60478U 24149L   26115.77980694  .00021218  00000+0  54178-3 0  9991
2 60478  97.3765 199.4264 0005711  97.5213 262.6682 15.39490954 94251
TOMORROW-S1             
1 60479U 24149M   26116.48270034  .00009058  00000+0  29572-3 0  9999
2 60479  97.3753 197.1470 0004204  84.0957 276.0764 15.31983746 94174
FLOCK 4BE-18            
1 60480U 24149N   26115.80764404  .00019395  00000+0  48517-3 0  9990
2 60480  97.3728 199.0589 0005047  95.2644 264.9178 15.40140489 94245
FLOCK 4BE-7             
1 60481U 24149P   26116.47031997  .00026693  00000+0  71052-3 0  9998
2 60481  97.3761 199.1849 0004259  99.1133 261.0594 15.38172269 94296
FLOCK 4BE-26            
1 60484U 24149S   26116.47351934  .00171623  00000+0  24848-2 0  9991
2 60484  97.3686 200.3962 0002905 143.5713 216.5739 15.55283279 94390
TOMORROW-S2             
1 60485U 24149T   26116.44848024  .00009844  00000+0  32105-3 0  9991
2 60485  97.3819 197.5535 0004596  99.0849 261.0913 15.31989860 94162
FLOCK 4BE-36            
1 60486U 24149U   26115.74432886  .00017321  00000+0  42095-3 0  9997
2 60486  97.3742 199.6130 0005164 103.0188 257.1635 15.41041704 94272
FLOCK 4BE-25            
1 60487U 24149V   26116.49851000  .00016628  00000+0  45419-3 0  9996
2 60487  97.3799 199.3530 0003709  98.3479 261.8187 15.37471075 94297
FLOCK 4BE-31            
1 60488U 24149W   26115.75059479  .00020587  00000+0  48309-3 0  9995
2 60488  97.3798 200.3424 0004052 106.1292 254.0402 15.42071355 94292
FLOCK 4BE-20            
1 60489U 24149X   26116.50084282  .00018385  00000+0  51455-3 0  9999
2 60489  97.3700 198.3657 0005297  99.4251 260.7593 15.36686205 94273
FLOCK 4BE-23            
1 60490U 24149Y   26115.76229080  .00013701  00000+0  38908-3 0  9990
2 60490  97.3780 197.9725 0005141 107.3195 252.8611 15.36296903 94149
FLOCK 4BE-15            
1 60491U 24149Z   26116.45421196  .00131449  00000+0  24080-2 0  9995
2 60491  97.3712 200.3302 0005585 172.7157 187.4176 15.48822841 94396
FLOCK 4BE-17            
1 60492U 24149AA  26116.53045669  .00019509  00000+0  51895-3 0  9999
2 60492  97.3776 199.5531 0004461  97.9496 262.2255 15.38255587 94314
NUSAT-50 (NANCY ROMAN)  
1 60493U 24149AB  26116.48052120  .00011196  00000+0  40062-3 0  9992
2 60493  97.3790 198.1324 0003962  45.5844 314.5720 15.28945292 94223
FLOCK 4BE-22            
1 60494U 24149AC  26116.49234459  .00020311  00000+0  51749-3 0  9994
2 60494  97.3732 199.6282 0005066 103.1318 257.0493 15.39570692 94344
FLOCK 4BE-34            
1 60495U 24149AD  26116.51051060  .00020164  00000+0  51252-3 0  9998
2 60495  97.3781 200.4340 0005383 110.0836 250.0990 15.39642314 94378
TYCHE                   
1 60496U 24149AE  26116.45916752  .00005574  00000+0  22073-3 0  9997
2 60496  97.3761 194.9705 0004716 102.0450 258.1317 15.25821851 94014
FLOCK 4BE-32            
1 60497U 24149AF  26115.79336781  .00016775  00000+0  41710-3 0  9996
2 60497  97.3719 199.2283 0005304 109.9074 250.2745 15.40353946 94266
NUSAT-48 (HENRIETTA LE*)
1 60498U 24149AG  26116.48801654  .00012228  00000+0  42433-3 0  9992
2 60498  97.3901 198.2565 0005483 100.5999 259.5859 15.29919796 94236
FLOCK 4BE-30            
1 60499U 24149AH  26116.50351696  .00110014  00000+0  22420-2 0  9997
2 60499  97.3790 200.7459 0003599 167.2904 192.8437 15.45820230 93766
NUSAT-49 (KLARA DAN VO*)
1 60500U 24149AJ  26116.47031721  .00011484  00000+0  39834-3 0  9999
2 60500  97.3781 198.1075 0004299 110.4708 249.6994 15.29953851 94222
FLOCK 4BE-11            
1 60501U 24149AK  26116.53085757  .00022027  00000+0  53099-3 0  9999
2 60501  97.3700 200.1501 0005360 107.4491 252.7342 15.41237641 94393
YAM-7                   
1 60504U 24149AN  26116.50404294  .00009289  00000+0  31174-3 0  9995
2 60504  97.3788 196.9918 0005043 112.7528 247.4246 15.31082833 94141
FLOCK 4BE-24            
1 60505U 24149AP  26115.67277345  .00019424  00000+0  47091-3 0  9995
2 60505  97.3717 199.5299 0005461 118.1449 242.0350 15.41090252 94277
LUR-1                   
1 60506U 24149AQ  26115.78293418  .00007304  00000+0  25875-3 0  9997
2 60506  97.3746 195.0173 0005581 122.6360 237.5420 15.29398305 93965
TANAGER-1               
1 60507U 24149AR  26115.81610594  .00014624  00000+0  31950-3 0  9994
2 60507  97.3468 209.7998 0007597 130.0750 230.1165 15.44257878 94951
EAGLEEYE                
1 60508U 24149AS  26116.24028683  .00076041  00000+0  83395-3 0  9996
2 60508  97.3728 207.0536 0003305 113.2757 246.8850 15.62991716 94808
FLOCK 4BE-29            
1 60509U 24149AT  26116.50266009  .00023359  00000+0  54118-3 0  9997
2 60509  97.3806 201.6676 0004285 120.8489 239.3180 15.42429026 94446
TRANSPORTER-11 OBJECT AU
1 60510U 24149AU  26115.79802928  .00015232  00000+0  39967-3 0  9991
2 60510  97.3729 199.1610 0005163 115.2781 244.9000 15.38728964 94250
FLOCK 4BE-2             
1 60511U 24149AV  26116.28321557  .00057796  00000+0  11168-2 0  9994
2 60511  97.3817 202.3191 0004807 122.4047 237.7668 15.47582305 94469
